[{"OBJECT_NAME":"COSMOS 2576","OBJECT_ID":"2024-092A","EPOCH":"2026-03-09T19:49:29.705664","MEAN_MOTION":15.27760963,"ECCENTRICITY":0.0005946,"INCLINATION":97.4253,"RA_OF_ASC_NODE":186.0053,"ARG_OF_PERICENTER":159.7731,"MEAN_ANOMALY":200.3745,"EPHEMERIS_TYPE":0,"CLASSIFICATION_TYPE":"U","NORAD_CAT_ID":59773,"ELEMENT_SET_NO":999,"REV_AT_EPOCH":10127,"BSTAR":0.00056283,"MEAN_MOTION_DOT":0.00015211,"MEAN_MOTION_DDOT":0},{"OBJECT_NAME":"STARLINK-36135","OBJECT_ID":"2025-288AD","EPOCH":"2026-03-09T22:18:51.613056","MEAN_MOTION":15.27587448,"ECCENTRICITY":0.00013425,"INCLINATION":43.0036,"RA_OF_ASC_NODE":22.1315,"ARG_OF_PERICENTER":254.0422,"MEAN_ANOMALY":106.0282,"EPHEMERIS_TYPE":0,"CLASSIFICATION_TYPE":"U","NORAD_CAT_ID":66986,"ELEMENT_SET_NO":999,"REV_AT_EPOCH":1532,"BSTAR":0.0008482019,"MEAN_MOTION_DOT":0.00023157,"MEAN_MOTION_DDOT":0}]
